     2.11           N: GPS NAV DATA                         RINEX VERSION / TYPE
teqc  2015Nov6      CORS-ADM Account    20160317 00:46:31UTCPGM / RUN BY / DATE
Solaris x86 5.10|AMD64|cc SC5.8 -xarch=amd64|=+|=+          COMMENT
     2.10           N: GPS NAV DATA                         COMMENT
rvacn.e(1404.07)                        2016-03-17T00:31 GMTCOMMENT
This file contains the validated broadcast navigation       COMMENT
messages from the following files:                          COMMENT
aaaa0760.16n, algo076x.16n, alic076x.16n, amc2076x.16n,     COMMENT
bor1076x.16n, cedu076x.16n, chur076x.16n, coco076x.16n,     COMMENT
cord076x.16n, cro1076x.16n, daej076x.16n, dav1076x.16n,     COMMENT
dgar076x.16n, dubo076x.16n, flin076x.16n, glsv076x.16n,     COMMENT
gode076x.16n, gold076x.16n, guam076x.16n, hlfx076x.16n,     COMMENT
hob2076x.16n, hrao076x.16n, iisc076x.16n, ispa076x.16n,     COMMENT
joze076x.16n, kit3076x.16n, kokb076x.16n, lpgs076x.16n,     COMMENT
madr076x.16n, mas1076x.16n, mate076x.16n, mcm4076x.16n,     COMMENT
nico076x.16n, nlib076x.16n, not1076x.16n, nrc1076x.16n,     COMMENT
nya1076x.16n, nyal076x.16n, ohi3076x.16n, onsa076x.16n,     COMMENT
pie1076x.16n, pimo076x.16n, pol2076x.16n, pots076x.16n,     COMMENT
quin076x.16n, rabt076x.16n, reun076x.16n, reyk076x.16n,     COMMENT
sant076x.16n, sch2076x.16n, stjo076x.16n, suth076x.16n,     COMMENT
tidb076x.16n, tow2076x.16n, tro1076x.16n, tskb076x.16n,     COMMENT
ulab076x.16n, unsa076x.16n, vill076x.16n, whit076x.16n,     COMMENT
wsrt076x.16n, wtzr076x.16n, yell076x.16n, zimm076x.16n      COMMENT
    1.6764D-08  7.4506D-09 -1.1921D-07  0.0000D+00          ION ALPHA
    1.1059D+05  0.0000D+00 -2.6214D+05  0.0000D+00          ION BETA
    1.862645149231D-09 7.993605777301D-15   405504     1888 DELTA-UTC: A0,A1,T,W
                                                            END OF HEADER
22 16  3 16 12  0  0.0 3.804354928434D-04-6.707523425575D-12 0.000000000000D+00
    3.400000000000D+01 5.156250000000D+00 5.808099073497D-09 1.599444944125D+00
    1.974403858185D-07 7.773595978506D-03 7.489696145058D-06 5.155064653397D+03
    3.024000000000D+05-1.750886440277D-07 1.048648981468D-01-1.210719347000D-07
    9.232637328861D-01 2.198750000000D+02-2.009291203158D+00-8.625002123101D-09
    1.342913080577D-10 1.000000000000D+00 1.888000000000D+03 0.000000000000D+00
    2.000000000000D+00 0.000000000000D+00-1.769512891769D-08 3.400000000000D+01
    2.952000000000D+05
23 16  3 16 12  0  0.0-1.649148762226D-04-1.818989403546D-12 0.000000000000D+00
    1.200000000000D+01 1.490625000000D+01 5.056282043014D-09 2.790964284122D-01
    8.195638656616D-07 1.059922459535D-02 7.828697562218D-06 5.153709245682D+03
    3.024000000000D+05 4.470348358154D-08 1.180516993523D+00 9.872019290924D-08
    9.462643921673D-01 2.165312500000D+02-2.605710665303D+00-8.427136738357D-09
   -4.735911555440D-10 1.000000000000D+00 1.888000000000D+03 0.000000000000D+00
    2.000000000000D+00 0.000000000000D+00-2.002343535423D-08 1.200000000000D+01
    2.952000000000D+05
24 16  3 16 12  0  0.0-1.399125903845D-05-5.684341886081D-13 0.000000000000D+00
    5.400000000000D+01 5.331250000000D+01 4.663051377664D-09-3.422778838534D-01
    2.697110176086D-06 4.350029863417D-03 8.212402462959D-06 5.153632648468D+03
    3.024000000000D+05 6.519258022308D-08 2.206949101866D+00 4.097819328308D-08
    9.501018618190D-01 2.145000000000D+02 3.933896448635D-01-8.238557454701D-09
   -1.925080187317D-10 1.000000000000D+00 1.888000000000D+03 0.000000000000D+00
    2.800000000000D+00 0.000000000000D+00 2.328306436539D-09 5.400000000000D+01
    2.952300000000D+05 4.000000000000D+00
25 16  3 16 12  0  0.0-1.351698301733D-04-6.934897101019D-12 0.000000000000D+00
    5.700000000000D+01 2.028125000000D+01 4.027667768529D-09-2.262343530683D+00
    1.065433025360D-06 5.381087539718D-03 4.878267645836D-06 5.153785863876D+03
    3.024000000000D+05 9.313225746155D-09-3.006145182356D+00-4.284083843231D-08
    9.788546520824D-01 2.951562500000D+02 7.221125979282D-01-7.963903157104D-09
    1.303625729816D-10 0.000000000000D+00 1.888000000000D+03 0.000000000000D+00
    2.000000000000D+00 0.000000000000D+00 5.587935447693D-09 5.700000000000D+01
    2.959200000000D+05 4.000000000000D+00
26 16  3 16 12  0  0.0-2.946360036731D-04-1.466560206609D-11 0.000000000000D+00
    6.500000000000D+01 2.325000000000D+01 4.552689637797D-09-2.945969188242D+00
    1.313164830208D-06 9.472980163991D-04 4.474073648453D-06 5.153726179123D+03
    3.024000000000D+05 5.774199962616D-08-3.013848983570D+00-4.470348358154D-08
    9.608499619091D-01 2.957812500000D+02-2.703149305590D-03-8.326061099579D-09
    1.310768884500D-10 1.000000000000D+00 1.888000000000D+03 0.000000000000D+00
    2.000000000000D+00 0.000000000000D+00 6.984919309616D-09 6.500000000000D+01
    2.967300000000D+05
27 16  3 16 12  0  0.0 7.254444062710D-05 3.751665644813D-12 0.000000000000D+00
    2.700000000000D+01-7.346875000000D+01 4.309108063076D-09 1.609963742046D+00
   -3.883615136147D-06 3.385188989341D-03 6.701797246933D-06 5.153640928268D+03
    3.024000000000D+05 3.539025783539D-08-1.964568034659D+00 8.195638656616D-08
    9.703651526778D-01 2.533125000000D+02 2.119198592671D-01-8.157125491304D-09
   -3.535861568541D-11 1.000000000000D+00 1.888000000000D+03 0.000000000000D+00
    2.000000000000D+00 0.000000000000D+00 1.396983861923D-09 2.700000000000D+01
    2.952000000000D+05
28 16  3 16 12  0  0.0 5.094758234918D-04 2.614797267597D-12 0.000000000000D+00
    8.000000000000D+01 2.753125000000D+01 3.770514199908D-09 2.323232571550D+00
    1.234933733940D-06 1.983890437987D-02 4.103407263756D-06 5.153626081467D+03
    3.024000000000D+05 2.160668373108D-07-2.932332667586D+00-8.381903171539D-08
    9.897722882858D-01 3.114062500000D+02-1.619068579905D+00-7.668890868658D-09
    7.678891285216D-11 1.000000000000D+00 1.888000000000D+03 0.000000000000D+00
    2.800000000000D+00 0.000000000000D+00-1.071020960808D-08 8.000000000000D+01
    2.952180000000D+05 4.000000000000D+00
29 16  3 16 12  0  0.0 6.559058092535D-04 4.547473508865D-13 0.000000000000D+00
    7.900000000000D+01-6.121875000000D+01 4.093027633887D-09-2.211573184032D+00
   -3.149732947350D-06 1.078097848222D-03 6.699934601784D-06 5.153604215622D+03
    3.024000000000D+05-2.793967723846D-08-1.905418042047D+00 2.048909664154D-08
    9.763462171732D-01 2.595312500000D+02-4.833996207917D-01-7.971760627257D-09
    7.536028191537D-11 1.000000000000D+00 1.888000000000D+03 0.000000000000D+00
    2.000000000000D+00 0.000000000000D+00-1.024454832077D-08 7.900000000000D+01
    2.952000000000D+05 4.000000000000D+00
30 16  3 16 12  0  0.0 1.072823069990D-04 3.865352482535D-12 0.000000000000D+00
    1.800000000000D+01 7.103125000000D+01 4.448042421678D-09-1.144235643539D+00
    3.598630428314D-06 1.800318015739D-03 9.022653102875D-06 5.153631975174D+03
    3.024000000000D+05-5.774199962616D-08 2.298053696006D+00-8.195638656616D-08
    9.528378082850D-01 2.012187500000D+02 2.983061711671D+00-8.068907530958D-09
   -1.014327965117D-10 1.000000000000D+00 1.888000000000D+03 0.000000000000D+00
    2.000000000000D+00 0.000000000000D+00 3.259629011154D-09 1.800000000000D+01
    2.952000000000D+05 4.000000000000D+00
31 16  3 16 12  0  0.0 2.781641669571D-04-1.705302565824D-12 0.000000000000D+00
    1.200000000000D+01 5.950000000000D+01 4.177674016892D-09-1.349301226898D+00
    3.036111593246D-06 8.268086705357D-03 8.141621947289D-06 5.153712478638D+03
    3.024000000000D+05-1.005828380585D-07 2.261909807657D+00-3.352761268616D-08
    9.718668980659D-01 2.324375000000D+02-4.131142980630D-01-7.960331579762D-09
   -1.892935991239D-11 1.000000000000D+00 1.888000000000D+03 0.000000000000D+00
    2.000000000000D+00 0.000000000000D+00-1.350417733192D-08 1.200000000000D+01
    2.952000000000D+05
32 16  3 16 12  0  0.0 9.886920452118D-06-5.684341886081D-13 0.000000000000D+00
    7.500000000000D+01 1.521875000000D+01 4.643764860017D-09 1.610227531046D+00
    7.655471563339D-07 3.571144770831D-05 8.314847946167D-06 5.153579399109D+03
    3.024000000000D+05-7.450580596924D-09 1.175648704979D+00 2.607703208923D-08
    9.599266440892D-01 2.202812500000D+02-2.104241789911D+00-8.057835641198D-09
   -3.371569010811D-10 1.000000000000D+00 1.888000000000D+03 0.000000000000D+00
    2.000000000000D+00 0.000000000000D+00 2.793967723846D-09 7.500000000000D+01
    2.952000000000D+05
 4 16  3 16 13 59 44.0-2.525453455746D-04-7.958078640513D-13 0.000000000000D+00
    2.300000000000D+01 2.168750000000D+01 5.190573351072D-09-2.595715340431D+00
    1.136213541031D-06 8.265275508165D-03 4.891306161880D-06 5.153625461578D+03
    3.095840000000D+05 6.146728992462D-08-2.984901057590D+00-4.842877388000D-08
    9.836253610645D-01 2.980312500000D+02 8.595063675588D-01-7.873185092618D-09
    1.010756387775D-10 1.000000000000D+00 1.888000000000D+03 0.000000000000D+00
    2.000000000000D+00 6.300000000000D+01-1.909211277962D-08 2.300000000000D+01
    3.024000000000D+05
13 16  3 16 13 59 44.0-3.919936716557D-06-2.842170943040D-12 0.000000000000D+00
    2.000000000000D+00 1.150000000000D+01 4.508759236491D-09 7.216320703009D-01
    5.289912223816D-07 4.629474249668D-03 8.748844265938D-06 5.153679094315D+03
    3.095840000000D+05-5.587935447693D-08 1.294219548022D+00-9.313225746155D-08
    9.717044293098D-01 2.174687500000D+02 1.986376954059D+00-8.013190924423D-09
   -3.825159333240D-10 1.000000000000D+00 1.888000000000D+03 0.000000000000D+00
    2.000000000000D+00 0.000000000000D+00-1.117587089539D-08 2.000000000000D+00
    3.072600000000D+05 4.000000000000D+00
